[{"OBJECT_NAME":"OBJECT A","OBJECT_ID":"2023-189A","EPOCH":"2026-03-09T22:59:06.381600","MEAN_MOTION":15.32403275,"ECCENTRICITY":0.00094831,"INCLINATION":97.4458,"RA_OF_ASC_NODE":86.5997,"ARG_OF_PERICENTER":249.5377,"MEAN_ANOMALY":110.4847,"EPHEMERIS_TYPE":0,"CLASSIFICATION_TYPE":"U","NORAD_CAT_ID":58502,"ELEMENT_SET_NO":999,"REV_AT_EPOCH":12601,"BSTAR":0.00019874471,"MEAN_MOTION_DOT":6.146e-5,"MEAN_MOTION_DDOT":0},{"OBJECT_NAME":"STARLINK-35159","OBJECT_ID":"2025-195D","EPOCH":"2026-03-09T17:00:33.960096","MEAN_MOTION":15.30208225,"ECCENTRICITY":0.00011127,"INCLINATION":53.1613,"RA_OF_ASC_NODE":258.3015,"ARG_OF_PERICENTER":125.8283,"MEAN_ANOMALY":234.2822,"EPHEMERIS_TYPE":0,"CLASSIFICATION_TYPE":"U","NORAD_CAT_ID":65461,"ELEMENT_SET_NO":999,"REV_AT_EPOCH":2999,"BSTAR":0.00077076455,"MEAN_MOTION_DOT":0.00022544,"MEAN_MOTION_DDOT":0}]
